STARLINK-5501           
1 55648U 23021W   26068.71060223 -.00000619  00000+0 -44076-4 0  9991
2 55648  70.0012 184.4395 0003089 264.3482  95.7325 14.98328021168793
HYPSO-2                 
1 60531U 24149BR  26068.64186663  .00003981  00000+0  33980-3 0  9993
2 60531  97.6894 146.3679 0001390  74.8032 285.3344 14.98259029 85149
